STARLINK-2647
1 18658C 21044W   21326.17812501 -.00000093  00000-0 -62128-5 0  3263
2 18658  53.0562 322.9484 0001714  66.6054  64.7517 15.06392240    19
